<?xml version="1.0" encoding="UTF-8"?>
<ndm xmlns:xsi="http://www.w3.org/2001/XMLSchema-instance" xsi:noNamespaceSchemaLocation="https://sanaregistry.org/r/ndmxml_unqualified/ndmxml-2.0.0-master-2.0.xsd">
<omm id="CCSDS_OMM_VERS" version="2.0">
<header><CREATION_DATE/><ORIGINATOR/></header><body><segment><metadata><OBJECT_NAME>ONEWEB-0446</OBJECT_NAME><OBJECT_ID>2022-012U</OBJECT_ID><CENTER_NAME>EARTH</CENTER_NAME><REF_FRAME>TEME</REF_FRAME><TIME_SYSTEM>UTC</TIME_SYSTEM><MEAN_ELEMENT_THEORY>SGP4</MEAN_ELEMENT_THEORY></metadata><data><meanElements><EPOCH>2024-12-29T19:42:07.057728</EPOCH><MEAN_MOTION>13.10376892</MEAN_MOTION><ECCENTRICITY>.0001717</ECCENTRICITY><INCLINATION>87.8911</INCLINATION><RA_OF_ASC_NODE>142.7291</RA_OF_ASC_NODE><ARG_OF_PERICENTER>106.3216</ARG_OF_PERICENTER><MEAN_ANOMALY>253.8101</MEAN_ANOMALY></meanElements><tleParameters><EPHEMERIS_TYPE>0</EPHEMERIS_TYPE><CLASSIFICATION_TYPE>U</CLASSIFICATION_TYPE><NORAD_CAT_ID>51640</NORAD_CAT_ID><ELEMENT_SET_NO>999</ELEMENT_SET_NO><REV_AT_EPOCH>13934</REV_AT_EPOCH><BSTAR>-.37221E-3</BSTAR><MEAN_MOTION_DOT>-.117E-5</MEAN_MOTION_DOT><MEAN_MOTION_DDOT>0</MEAN_MOTION_DDOT></tleParameters></data></segment></body></omm>
<omm id="CCSDS_OMM_VERS" version="2.0">
<header><CREATION_DATE/><ORIGINATOR/></header><body><segment><metadata><OBJECT_NAME>ONEWEB-0448</OBJECT_NAME><OBJECT_ID>2022-012V</OBJECT_ID><CENTER_NAME>EARTH</CENTER_NAME><REF_FRAME>TEME</REF_FRAME><TIME_SYSTEM>UTC</TIME_SYSTEM><MEAN_ELEMENT_THEORY>SGP4</MEAN_ELEMENT_THEORY></metadata><data><meanElements><EPOCH>2024-12-29T19:49:17.086944</EPOCH><MEAN_MOTION>13.10374965</MEAN_MOTION><ECCENTRICITY>.0001451</ECCENTRICITY><INCLINATION>87.8912</INCLINATION><RA_OF_ASC_NODE>142.7283</RA_OF_ASC_NODE><ARG_OF_PERICENTER>97.7381</ARG_OF_PERICENTER><MEAN_ANOMALY>262.3911</MEAN_ANOMALY></meanElements><tleParameters><EPHEMERIS_TYPE>0</EPHEMERIS_TYPE><CLASSIFICATION_TYPE>U</CLASSIFICATION_TYPE><NORAD_CAT_ID>51641</NORAD_CAT_ID><ELEMENT_SET_NO>999</ELEMENT_SET_NO><REV_AT_EPOCH>13931</REV_AT_EPOCH><BSTAR>.28215E-3</BSTAR><MEAN_MOTION_DOT>.111E-5</MEAN_MOTION_DOT><MEAN_MOTION_DDOT>0</MEAN_MOTION_DDOT></tleParameters></data></segment></body></omm>
<omm id="CCSDS_OMM_VERS" version="2.0">
<header><CREATION_DATE/><ORIGINATOR/></header><body><segment><metadata><OBJECT_NAME>ONEWEB-0449</OBJECT_NAME><OBJECT_ID>2022-012W</OBJECT_ID><CENTER_NAME>EARTH</CENTER_NAME><REF_FRAME>TEME</REF_FRAME><TIME_SYSTEM>UTC</TIME_SYSTEM><MEAN_ELEMENT_THEORY>SGP4</MEAN_ELEMENT_THEORY></metadata><data><meanElements><EPOCH>2024-12-29T16:16:34.039200</EPOCH><MEAN_MOTION>13.10376166</MEAN_MOTION><ECCENTRICITY>.0001684</ECCENTRICITY><INCLINATION>87.8905</INCLINATION><RA_OF_ASC_NODE>142.7418</RA_OF_ASC_NODE><ARG_OF_PERICENTER>91.9765</ARG_OF_PERICENTER><MEAN_ANOMALY>268.1555</MEAN_ANOMALY></meanElements><tleParameters><EPHEMERIS_TYPE>0</EPHEMERIS_TYPE><CLASSIFICATION_TYPE>U</CLASSIFICATION_TYPE><NORAD_CAT_ID>51642</NORAD_CAT_ID><ELEMENT_SET_NO>999</ELEMENT_SET_NO><REV_AT_EPOCH>13930</REV_AT_EPOCH><BSTAR>.11889E-2</BSTAR><MEAN_MOTION_DOT>.428E-5</MEAN_MOTION_DOT><MEAN_MOTION_DDOT>0</MEAN_MOTION_DDOT></tleParameters></data></segment></body></omm>
<omm id="CCSDS_OMM_VERS" version="2.0">
<header><CREATION_DATE/><ORIGINATOR/></header><body><segment><metadata><OBJECT_NAME>ONEWEB-0451</OBJECT_NAME><OBJECT_ID>2022-012X</OBJECT_ID><CENTER_NAME>EARTH</CENTER_NAME><REF_FRAME>TEME</REF_FRAME><TIME_SYSTEM>UTC</TIME_SYSTEM><MEAN_ELEMENT_THEORY>SGP4</MEAN_ELEMENT_THEORY></metadata><data><meanElements><EPOCH>2024-12-29T23:56:56.350752</EPOCH><MEAN_MOTION>13.17647909</MEAN_MOTION><ECCENTRICITY>.000179</ECCENTRICITY><INCLINATION>87.9100</INCLINATION><RA_OF_ASC_NODE>112.2671</RA_OF_ASC_NODE><ARG_OF_PERICENTER>98.0799</ARG_OF_PERICENTER><MEAN_ANOMALY>262.0536</MEAN_ANOMALY></meanElements><tleParameters><EPHEMERIS_TYPE>0</EPHEMERIS_TYPE><CLASSIFICATION_TYPE>U</CLASSIFICATION_TYPE><NORAD_CAT_ID>51643</NORAD_CAT_ID><ELEMENT_SET_NO>999</ELEMENT_SET_NO><REV_AT_EPOCH>14461</REV_AT_EPOCH><BSTAR>.16843E-3</BSTAR><MEAN_MOTION_DOT>.78E-6</MEAN_MOTION_DOT><MEAN_MOTION_DDOT>0</MEAN_MOTION_DDOT></tleParameters></data></segment></body></omm>
<omm id="CCSDS_OMM_VERS" version="2.0">
<header><CREATION_DATE/><ORIGINATOR/></header><body><segment><metadata><OBJECT_NAME>ONEWEB-0452</OBJECT_NAME><OBJECT_ID>2022-012Y</OBJECT_ID><CENTER_NAME>EARTH</CENTER_NAME><REF_FRAME>TEME</REF_FRAME><TIME_SYSTEM>UTC</TIME_SYSTEM><MEAN_ELEMENT_THEORY>SGP4</MEAN_ELEMENT_THEORY></metadata><data><meanElements><EPOCH>2024-12-30T01:43:54.039936</EPOCH><MEAN_MOTION>13.17650494</MEAN_MOTION><ECCENTRICITY>.0001643</ECCENTRICITY><INCLINATION>87.9109</INCLINATION><RA_OF_ASC_NODE>112.3042</RA_OF_ASC_NODE><ARG_OF_PERICENTER>91.2750</ARG_OF_PERICENTER><MEAN_ANOMALY>268.8570</MEAN_ANOMALY></meanElements><tleParameters><EPHEMERIS_TYPE>0</EPHEMERIS_TYPE><CLASSIFICATION_TYPE>U</CLASSIFICATION_TYPE><NORAD_CAT_ID>51644</NORAD_CAT_ID><ELEMENT_SET_NO>999</ELEMENT_SET_NO><REV_AT_EPOCH>14463</REV_AT_EPOCH><BSTAR>.49526E-3</BSTAR><MEAN_MOTION_DOT>.205E-5</MEAN_MOTION_DOT><MEAN_MOTION_DDOT>0</MEAN_MOTION_DDOT></tleParameters></data></segment></body></omm>
<omm id="CCSDS_OMM_VERS" version="2.0">
<header><CREATION_DATE/><ORIGINATOR/></header><body><segment><metadata><OBJECT_NAME>ONEWEB-0456</OBJECT_NAME><OBJECT_ID>2022-012AA</OBJECT_ID><CENTER_NAME>EARTH</CENTER_NAME><REF_FRAME>TEME</REF_FRAME><TIME_SYSTEM>UTC</TIME_SYSTEM><MEAN_ELEMENT_THEORY>SGP4</MEAN_ELEMENT_THEORY></metadata><data><meanElements><EPOCH>2024-12-30T03:30:38.585952</EPOCH><MEAN_MOTION>13.10373489</MEAN_MOTION><ECCENTRICITY>.0001353</ECCENTRICITY><INCLINATION>87.8899</INCLINATION><RA_OF_ASC_NODE>142.6142</RA_OF_ASC_NODE><ARG_OF_PERICENTER>104.7222</ARG_OF_PERICENTER><MEAN_ANOMALY>255.4055</MEAN_ANOMALY></meanElements><tleParameters><EPHEMERIS_TYPE>0</EPHEMERIS_TYPE><CLASSIFICATION_TYPE>U</CLASSIFICATION_TYPE><NORAD_CAT_ID>51646</NORAD_CAT_ID><ELEMENT_SET_NO>999</ELEMENT_SET_NO><REV_AT_EPOCH>14069</REV_AT_EPOCH><BSTAR>.17021E-2</BSTAR><MEAN_MOTION_DOT>.607E-5</MEAN_MOTION_DOT><MEAN_MOTION_DDOT>0</MEAN_MOTION_DDOT></tleParameters></data></segment></body></omm>
<omm id="CCSDS_OMM_VERS" version="2.0">
<header><CREATION_DATE/><ORIGINATOR/></header><body><segment><metadata><OBJECT_NAME>ONEWEB-0457</OBJECT_NAME><OBJECT_ID>2022-012AB</OBJECT_ID><CENTER_NAME>EARTH</CENTER_NAME><REF_FRAME>TEME</REF_FRAME><TIME_SYSTEM>UTC</TIME_SYSTEM><MEAN_ELEMENT_THEORY>SGP4</MEAN_ELEMENT_THEORY></metadata><data><meanElements><EPOCH>2024-12-29T15:57:25.149888</EPOCH><MEAN_MOTION>13.10375209</MEAN_MOTION><ECCENTRICITY>.0001884</ECCENTRICITY><INCLINATION>87.8912</INCLINATION><RA_OF_ASC_NODE>142.7493</RA_OF_ASC_NODE><ARG_OF_PERICENTER>94.5845</ARG_OF_PERICENTER><MEAN_ANOMALY>265.5497</MEAN_ANOMALY></meanElements><tleParameters><EPHEMERIS_TYPE>0</EPHEMERIS_TYPE><CLASSIFICATION_TYPE>U</CLASSIFICATION_TYPE><NORAD_CAT_ID>51647</NORAD_CAT_ID><ELEMENT_SET_NO>999</ELEMENT_SET_NO><REV_AT_EPOCH>13934</REV_AT_EPOCH><BSTAR>-.74532E-3</BSTAR><MEAN_MOTION_DOT>-.248E-5</MEAN_MOTION_DOT><MEAN_MOTION_DDOT>0</MEAN_MOTION_DDOT></tleParameters></data></segment></body></omm>
<omm id="CCSDS_OMM_VERS" version="2.0">
<header><CREATION_DATE/><ORIGINATOR/></header><body><segment><metadata><OBJECT_NAME>ONEWEB-0458</OBJECT_NAME><OBJECT_ID>2022-012AC</OBJECT_ID><CENTER_NAME>EARTH</CENTER_NAME><REF_FRAME>TEME</REF_FRAME><TIME_SYSTEM>UTC</TIME_SYSTEM><MEAN_ELEMENT_THEORY>SGP4</MEAN_ELEMENT_THEORY></metadata><data><meanElements><EPOCH>2024-12-30T08:58:06.831552</EPOCH><MEAN_MOTION>13.10373930</MEAN_MOTION><ECCENTRICITY>.0001426</ECCENTRICITY><INCLINATION>87.8895</INCLINATION><RA_OF_ASC_NODE>142.6156</RA_OF_ASC_NODE><ARG_OF_PERICENTER>95.0276</ARG_OF_PERICENTER><MEAN_ANOMALY>265.1014</MEAN_ANOMALY></meanElements><tleParameters><EPHEMERIS_TYPE>0</EPHEMERIS_TYPE><CLASSIFICATION_TYPE>U</CLASSIFICATION_TYPE><NORAD_CAT_ID>51648</NORAD_CAT_ID><ELEMENT_SET_NO>999</ELEMENT_SET_NO><REV_AT_EPOCH>14069</REV_AT_EPOCH><BSTAR>.16442E-2</BSTAR><MEAN_MOTION_DOT>.587E-5</MEAN_MOTION_DOT><MEAN_MOTION_DDOT>0</MEAN_MOTION_DDOT></tleParameters></data></segment></body></omm>

</ndm>
