ONEWEB-0446             
1 51640U 22012U   24364.82091502 -.00000117  00000+0 -37221-3 0  9997
2 51640  87.8911 142.7291 0001717 106.3216 253.8101 13.10376892139343
ONEWEB-0448             
1 51641U 22012V   24364.82589221  .00000111  00000+0  28215-3 0  9993
2 51641  87.8912 142.7283 0001451  97.7381 262.3911 13.10374965139317
ONEWEB-0449             
1 51642U 22012W   24364.67817175  .00000428  00000+0  11889-2 0  9998
2 51642  87.8905 142.7418 0001684  91.9765 268.1555 13.10376166139302
ONEWEB-0451             
1 51643U 22012X   24364.99787443  .00000078  00000+0  16843-3 0  9995
2 51643  87.9100 112.2671 0001790  98.0799 262.0536 13.17647909144612
ONEWEB-0452             
1 51644U 22012Y   24365.07215324  .00000205  00000+0  49526-3 0  9996
2 51644  87.9109 112.3042 0001643  91.2750 268.8570 13.17650494144631
ONEWEB-0456             
1 51646U 22012AA  24365.14627993  .00000607  00000+0  17021-2 0  9995
2 51646  87.8899 142.6142 0001353 104.7222 255.4055 13.10373489140698
ONEWEB-0457             
1 51647U 22012AB  24364.66487442 -.00000248  00000+0 -74532-3 0  9999
2 51647  87.8912 142.7493 0001884  94.5845 265.5497 13.10375209139345
ONEWEB-0458             
1 51648U 22012AC  24365.37369018  .00000587  00000+0  16442-2 0  9996
2 51648  87.8895 142.6156 0001426  95.0276 265.1014 13.10373930140697
